BEESAT-4                
1 41619U 16040W   17345.74120101  .00001765  00000-0  81302-4 0  9995
2 41619  97.4415  46.2797 0012345 160.2114 199.9603 15.21548843 69584
